{
    "links": {
        "self": "http://www.neowsapp.com/rest/v1/neo/3625731?api_key=iIulBulltgU6a56xZRHN4H3l9WmuAYTsLGpBGhQ2"
    },
    "id": "3625731",
    "neo_reference_id": "3625731",
    "name": "(2013 CZ)",
    "designation": "2013 CZ",
    "nasa_jpl_url": "http://ssd.jpl.nasa.gov/sbdb.cgi?sstr=3625731",
    "absolute_magnitude_h": 23.4,
    "estimated_diameter": {
        "kilometers": {
            "estimated_diameter_min": 0.0555334912,
            "estimated_diameter_max": 0.1241766613
        },
        "meters": {
            "estimated_diameter_min": 55.5334911581,
            "estimated_diameter_max": 124.1766612574
        },
        "miles": {
            "estimated_diameter_min": 0.0345069009,
            "estimated_diameter_max": 0.0771597762
        },
        "feet": {
            "estimated_diameter_min": 182.1964991311,
            "estimated_diameter_max": 407.4037573197
        }
    },
    "is_potentially_hazardous_asteroid": false,
    "close_approach_data": [
        {
            "close_approach_date": "2013-02-01",
            "close_approach_date_full": "2013-Feb-01 05:48",
            "epoch_date_close_approach": 1359697680000,
            "relative_velocity": {
                "kilometers_per_second": "10.985226184",
                "kilometers_per_hour": "39546.8142623687",
                "miles_per_hour": "24572.8524509701"
            },
            "miss_distance": {
                "astronomical": "0.0789263028",
                "lunar": "30.7023317892",
                "kilometers": "11807206.785855036",
                "miles": "7336658.0913740568"
            },
            "orbiting_body": "Earth"
        }
    ],
    "orbital_data": {
        "orbit_id": "6",
        "orbit_determination_date": "2017-04-06 08:46:56",
        "first_observation_date": "2013-02-01",
        "last_observation_date": "2013-02-14",
        "data_arc_in_days": 13,
        "observations_used": 35,
        "orbit_uncertainty": "8",
        "minimum_orbit_intersection": ".0785227",
        "jupiter_tisserand_invariant": "4.700",
        "epoch_osculation": "2456327.5",
        "eccentricity": ".235103617996101",
        "semi_major_axis": "1.385133217097188",
        "inclination": "19.81755024949108",
        "ascending_node_longitude": "130.8845265803444",
        "orbital_period": "595.4368977384224",
        "perihelion_distance": "1.05948338635106",
        "perihelion_argument": "12.77732238097143",
        "aphelion_distance": "1.710783047843315",
        "perihelion_time": "2456335.512636431578",
        "mean_anomaly": "355.1555754668142",
        "mean_motion": ".6045980713780846",
        "equinox": "J2000",
        "orbit_class": {
            "orbit_class_type": "AMO",
            "orbit_class_description": "Near-Earth asteroid orbits similar to that of 1221 Amor",
            "orbit_class_range": "1.017 AU < q (perihelion) < 1.3 AU"
        }
    },
    "is_sentry_object": false
}